{
  "ships": {
    "type": "FeatureCollection",
    "features": [
      {
        "type": "Feature",
        "geometry": {
          "type": "Polygon",
          "coordinates": [
            [
              [
                56.399720370415,
                26.61133264776667
              ],
              [
                56.401729856473324,
                26.61133264776667
              ],
              [
                56.401729856473324,
                26.61007501212168
              ],
              [
                56.399720370415,
                26.61007501212168
              ],
              [
                56.399720370415,
                26.61133264776667
              ]
            ]
          ]
        },
        "properties": {
          "matched": true,
          "mmsi": "SYNTH000001",
          "type": "cargo",
          "confidence": 1.0
        }
      },
      {
        "type": "Feature",
        "geometry": {
          "type": "Polygon",
          "coordinates": [
            [
              [
                56.414003637090595,
                26.605224103834654
              ],
              [
                56.416013015832725,
                26.605224103834654
              ],
              [
                56.416013015832725,
                26.603966468189665
              ],
              [
                56.414003637090595,
                26.603966468189665
              ],
              [
                56.414003637090595,
                26.605224103834654
              ]
            ]
          ]
        },
        "properties": {
          "matched": true,
          "mmsi": "SYNTH000002",
          "type": "cargo",
          "confidence": 1.0
        }
      },
      {
        "type": "Feature",
        "geometry": {
          "type": "Polygon",
          "coordinates": [
            [
              [
                56.49871519309599,
                26.556535416668115
              ],
              [
                56.500723722412275,
                26.556535416668115
              ],
              [
                56.500723722412275,
                26.55581676772812
              ],
              [
                56.49871519309599,
                26.55581676772812
              ],
              [
                56.49871519309599,
                26.556535416668115
              ]
            ]
          ]
        },
        "properties": {
          "matched": true,
          "mmsi": "SYNTH000003",
          "type": "cargo",
          "confidence": 1.0
        }
      },
      {
        "type": "Feature",
        "geometry": {
          "type": "Polygon",
          "coordinates": [
            [
              [
                56.47410136454136,
                26.55554726903376
              ],
              [
                56.47610987339714,
                26.55554726903376
              ],
              [
                56.47610987339714,
                26.55446929562377
              ],
              [
                56.47410136454136,
                26.55446929562377
              ],
              [
                56.47410136454136,
                26.55554726903376
              ]
            ]
          ]
        },
        "properties": {
          "matched": true,
          "mmsi": "SYNTH000004",
          "type": "cargo",
          "confidence": 1.0
        }
      },
      {
        "type": "Feature",
        "geometry": {
          "type": "Polygon",
          "coordinates": [
            [
              [
                56.41840600725179,
                26.533897870275567
              ],
              [
                56.4204141354559,
                26.533897870275567
              ],
              [
                56.4204141354559,
                26.532640234630577
              ],
              [
                56.41840600725179,
                26.532640234630577
              ],
              [
                56.41840600725179,
                26.533897870275567
              ]
            ]
          ]
        },
        "properties": {
          "matched": true,
          "mmsi": "SYNTH000005",
          "type": "cargo",
          "confidence": 1.0
        }
      },
      {
        "type": "Feature",
        "geometry": {
          "type": "Polygon",
          "coordinates": [
            [
              [
                56.4186755709927,
                26.525768117981567
              ],
              [
                56.42068356088546,
                26.525768117981567
              ],
              [
                56.42068356088546,
                26.524959637924074
              ],
              [
                56.4186755709927,
                26.524959637924074
              ],
              [
                56.4186755709927,
                26.525768117981567
              ]
            ]
          ]
        },
        "properties": {
          "matched": true,
          "mmsi": "SYNTH000006",
          "type": "cargo",
          "confidence": 1.0
        }
      },
      {
        "type": "Feature",
        "geometry": {
          "type": "Polygon",
          "coordinates": [
            [
              [
                56.41768743046563,
                26.52504946575427
              ],
              [
                56.419695407787465,
                26.52504946575427
              ],
              [
                56.419695407787465,
                26.52424098569678
              ],
              [
                56.41768743046563,
                26.52424098569678
              ],
              [
                56.41768743046563,
                26.52504946575427
              ]
            ]
          ]
        },
        "properties": {
          "matched": true,
          "mmsi": "SYNTH000007",
          "type": "cargo",
          "confidence": 1.0
        }
      },
      {
        "type": "Feature",
        "geometry": {
          "type": "Polygon",
          "coordinates": [
            [
              [
                56.374658221824575,
                26.5143145983145
              ],
              [
                56.37666601220987,
                26.5143145983145
              ],
              [
                56.37666601220987,
                26.513595949374505
              ],
              [
                56.374658221824575,
                26.513595949374505
              ],
              [
                56.374658221824575,
                26.5143145983145
              ]
            ]
          ]
        },
        "properties": {
          "matched": true,
          "mmsi": "SYNTH000008",
          "type": "cargo",
          "confidence": 1.0
        }
      },
      {
        "type": "Feature",
        "geometry": {
          "type": "Polygon",
          "coordinates": [
            [
              [
                56.3733107551801,
                26.513685777204703
              ],
              [
                56.37531853300199,
                26.513685777204703
              ],
              [
                56.37531853300199,
                26.51278746602971
              ],
              [
                56.3733107551801,
                26.51278746602971
              ],
              [
                56.3733107551801,
                26.513685777204703
              ]
            ]
          ]
        },
        "properties": {
          "matched": true,
          "mmsi": "SYNTH000009",
          "type": "cargo",
          "confidence": 1.0
        }
      }
    ]
  },
  "dark_vessels": {
    "type": "FeatureCollection",
    "features": [
      {
        "type": "Feature",
        "geometry": {
          "type": "Polygon",
          "coordinates": [
            [
              [
                56.37573472531344,
                26.68247921867985
              ],
              [
                56.37774546540289,
                26.68247921867985
              ],
              [
                56.37774546540289,
                26.681401245269857
              ],
              [
                56.37573472531344,
                26.681401245269857
              ],
              [
                56.37573472531344,
                26.68247921867985
              ]
            ]
          ]
        },
        "properties": {
          "matched": false,
          "confidence": 1.0
        }
      }
    ]
  },
  "oil": {
    "type": "FeatureCollection",
    "features": []
  },
  "ais_tracks": {
    "type": "FeatureCollection",
    "features": []
  },
  "zones": {
    "type": "FeatureCollection",
    "features": []
  }
}