{
  "ships": {
    "type": "FeatureCollection",
    "features": [
      {
        "type": "Feature",
        "geometry": {
          "type": "Polygon",
          "coordinates": [
            [
              [
                57.7602598292418,
                -20.39171158031343
              ],
              [
                57.76240936495548,
                -20.39171158031343
              ],
              [
                57.76240936495548,
                -20.392430229253424
              ],
              [
                57.7602598292418,
                -20.392430229253424
              ],
              [
                57.7602598292418,
                -20.39171158031343
              ]
            ]
          ]
        },
        "properties": {
          "matched": true,
          "mmsi": "SYNTH000000",
          "type": "cargo",
          "confidence": 0.849459171295166
        }
      },
      {
        "type": "Feature",
        "geometry": {
          "type": "Polygon",
          "coordinates": [
            [
              [
                57.71347178882233,
                -20.382782417062433
              ],
              [
                57.7153884221044,
                -20.382782417062433
              ],
              [
                57.7153884221044,
                -20.383501066002427
              ],
              [
                57.71347178882233,
                -20.383501066002427
              ],
              [
                57.71347178882233,
                -20.382782417062433
              ]
            ]
          ]
        },
        "properties": {
          "matched": true,
          "mmsi": "SYNTH000003",
          "type": "cargo",
          "confidence": 0.801371157169342
        }
      },
      {
        "type": "Feature",
        "geometry": {
          "type": "Polygon",
          "coordinates": [
            [
              [
                57.76450798878012,
                -20.39014783307542
              ],
              [
                57.766424713629526,
                -20.39014783307542
              ],
              [
                57.766424713629526,
                -20.390866482015415
              ],
              [
                57.76450798878012,
                -20.390866482015415
              ],
              [
                57.76450798878012,
                -20.39014783307542
              ]
            ]
          ]
        },
        "properties": {
          "matched": true,
          "mmsi": "SYNTH000005",
          "type": "cargo",
          "confidence": 0.6069436073303223
        }
      },
      {
        "type": "Feature",
        "geometry": {
          "type": "Polygon",
          "coordinates": [
            [
              [
                57.7617901457202,
                -20.3931253878799
              ],
              [
                57.763706907598234,
                -20.3931253878799
              ],
              [
                57.763706907598234,
                -20.393844036819893
              ],
              [
                57.7617901457202,
                -20.393844036819893
              ],
              [
                57.7617901457202,
                -20.3931253878799
              ]
            ]
          ]
        },
        "properties": {
          "matched": true,
          "mmsi": "SYNTH000006",
          "type": "cargo",
          "confidence": 0.45170557498931885
        }
      },
      {
        "type": "Feature",
        "geometry": {
          "type": "Polygon",
          "coordinates": [
            [
              [
                57.710857814926136,
                -20.40514184889017
              ],
              [
                57.71277472630705,
                -20.40514184889017
              ],
              [
                57.71277472630705,
                -20.405860497830165
              ],
              [
                57.710857814926136,
                -20.405860497830165
              ],
              [
                57.710857814926136,
                -20.40514184889017
              ]
            ]
          ]
        },
        "properties": {
          "matched": true,
          "mmsi": "SYNTH000007",
          "type": "cargo",
          "confidence": 1.0
        }
      },
      {
        "type": "Feature",
        "geometry": {
          "type": "Polygon",
          "coordinates": [
            [
              [
                57.743825783290575,
                -20.437615946616546
              ],
              [
                57.745743099797,
                -20.437615946616546
              ],
              [
                57.745743099797,
                -20.43842442667404
              ],
              [
                57.743825783290575,
                -20.43842442667404
              ],
              [
                57.743825783290575,
                -20.437615946616546
              ]
            ]
          ]
        },
        "properties": {
          "matched": true,
          "mmsi": "SYNTH000008",
          "type": "cargo",
          "confidence": 1.0
        }
      }
    ]
  },
  "dark_vessels": {
    "type": "FeatureCollection",
    "features": [
      {
        "type": "Feature",
        "geometry": {
          "type": "Polygon",
          "coordinates": [
            [
              [
                57.76203431676268,
                -20.38775139447508
              ],
              [
                57.76395101181497,
                -20.38775139447508
              ],
              [
                57.76395101181497,
                -20.388470043415076
              ],
              [
                57.76203431676268,
                -20.388470043415076
              ],
              [
                57.76203431676268,
                -20.38775139447508
              ]
            ]
          ]
        },
        "properties": {
          "matched": false,
          "confidence": 0.8434028029441833
        }
      },
      {
        "type": "Feature",
        "geometry": {
          "type": "Polygon",
          "coordinates": [
            [
              [
                57.743983399253445,
                -20.437499466957973
              ],
              [
                57.74754373877946,
                -20.437499466957973
              ],
              [
                57.74754373877946,
                -20.438402112673543
              ],
              [
                57.743983399253445,
                -20.438402112673543
              ],
              [
                57.743983399253445,
                -20.437499466957973
              ]
            ]
          ]
        },
        "properties": {
          "matched": false,
          "confidence": 0.813336193561554
        }
      },
      {
        "type": "Feature",
        "geometry": {
          "type": "Polygon",
          "coordinates": [
            [
              [
                57.76966943591196,
                -20.397291414106824
              ],
              [
                57.77180306967232,
                -20.397291414106824
              ],
              [
                57.77180306967232,
                -20.39801006304682
              ],
              [
                57.76966943591196,
                -20.39801006304682
              ],
              [
                57.76966943591196,
                -20.397291414106824
              ]
            ]
          ]
        },
        "properties": {
          "matched": false,
          "confidence": 0.6161859631538391
        }
      }
    ]
  },
  "oil": {
    "type": "FeatureCollection",
    "features": []
  },
  "ais_tracks": {
    "type": "FeatureCollection",
    "features": []
  },
  "zones": {
    "type": "FeatureCollection",
    "features": []
  }
}