{
  "ships": {
    "type": "FeatureCollection",
    "features": []
  },
  "dark_vessels": {
    "type": "FeatureCollection",
    "features": [
      {
        "type": "Feature",
        "geometry": {
          "type": "Polygon",
          "coordinates": [
            [
              [
                57.74032537217858,
                -20.440294672621103
              ],
              [
                57.74491268434593,
                -20.440294672621103
              ],
              [
                57.74491268434593,
                -20.441371704436197
              ],
              [
                57.74032537217858,
                -20.441371704436197
              ],
              [
                57.74032537217858,
                -20.440294672621103
              ]
            ]
          ]
        },
        "properties": {
          "matched": false,
          "confidence": 0.8653140664100647
        }
      },
      {
        "type": "Feature",
        "geometry": {
          "type": "Polygon",
          "coordinates": [
            [
              [
                57.67603959449853,
                -20.431867523610524
              ],
              [
                57.677956838773156,
                -20.431867523610524
              ],
              [
                57.677956838773156,
                -20.43258617255052
              ],
              [
                57.67603959449853,
                -20.43258617255052
              ],
              [
                57.67603959449853,
                -20.431867523610524
              ]
            ]
          ]
        },
        "properties": {
          "matched": false,
          "confidence": 0.15844063460826874
        }
      },
      {
        "type": "Feature",
        "geometry": {
          "type": "Polygon",
          "coordinates": [
            [
              [
                57.710947647013576,
                -20.40487235512676
              ],
              [
                57.712864557276454,
                -20.40487235512676
              ],
              [
                57.712864557276454,
                -20.40595032853675
              ],
              [
                57.710947647013576,
                -20.40595032853675
              ],
              [
                57.710947647013576,
                -20.40487235512676
              ]
            ]
          ]
        },
        "properties": {
          "matched": false,
          "confidence": 0.9528674125671387
        }
      },
      {
        "type": "Feature",
        "geometry": {
          "type": "Polygon",
          "coordinates": [
            [
              [
                57.669804591555966,
                -20.43954732468286
              ],
              [
                57.671721932708714,
                -20.43954732468286
              ],
              [
                57.671721932708714,
                -20.440445635857852
              ],
              [
                57.669804591555966,
                -20.440445635857852
              ],
              [
                57.669804591555966,
                -20.43954732468286
              ]
            ]
          ]
        },
        "properties": {
          "matched": false,
          "confidence": 1.0
        }
      },
      {
        "type": "Feature",
        "geometry": {
          "type": "Polygon",
          "coordinates": [
            [
              [
                57.741759632929075,
                -20.441613449836336
              ],
              [
                57.743676999851544,
                -20.441613449836336
              ],
              [
                57.743676999851544,
                -20.44251176101133
              ],
              [
                57.741759632929075,
                -20.44251176101133
              ],
              [
                57.741759632929075,
                -20.441613449836336
              ]
            ]
          ]
        },
        "properties": {
          "matched": false,
          "confidence": 1.0
        }
      }
    ]
  },
  "oil": {
    "type": "FeatureCollection",
    "features": [
      {
        "type": "Feature",
        "geometry": {
          "type": "Polygon",
          "coordinates": [
            [
              [
                57.66878696850728,
                -20.422838658343675
              ],
              [
                57.66878696850728,
                -20.422928489872085
              ],
              [
                57.668697136978864,
                -20.422928489872085
              ],
              [
                57.668697136978864,
                -20.423287815985734
              ],
              [
                57.66878696850728,
                -20.423287815985734
              ],
              [
                57.66878696850728,
                -20.423736973627793
              ],
              [
                57.66887680003569,
                -20.423736973627793
              ],
              [
                57.66887680003569,
                -20.42400646821303
              ],
              [
                57.66905646309251,
                -20.42400646821303
              ],
              [
                57.66905646309251,
                -20.424096299741443
              ],
              [
                57.669236126149336,
                -20.424096299741443
              ],
              [
                57.669236126149336,
                -20.424186131269852
              ],
              [
                57.66959545226298,
                -20.424186131269852
              ],
              [
                57.66959545226298,
                -20.424275962798266
              ],
              [
                57.66977511531981,
                -20.424275962798266
              ],
              [
                57.66977511531981,
                -20.42436579432668
              ],
              [
                57.67004460990504,
                -20.42436579432668
              ],
              [
                57.67004460990504,
                -20.42445562585509
              ],
              [
                57.671122588245986,
                -20.42445562585509
              ],
              [
                57.671122588245986,
                -20.424545457383502
              ],
              [
                57.67130225130281,
                -20.424545457383502
              ],
              [
                57.67130225130281,
                -20.424635288911915
              ],
              [
                57.671392082831225,
                -20.424635288911915
              ],
              [
                57.671392082831225,
                -20.424725120440325
              ],
              [
                57.67148191435963,
                -20.424725120440325
              ],
              [
                57.67148191435963,
                -20.424904783497148
              ],
              [
                57.671571745888045,
                -20.424904783497148
              ],
              [
                57.671571745888045,
                -20.42499461502556
              ],
              [
                57.67166157741646,
                -20.42499461502556
              ],
              [
                57.67166157741646,
                -20.425084446553974
              ],
              [
                57.67175140894487,
                -20.425084446553974
              ],
              [
                57.67175140894487,
                -20.425174278082384
              ],
              [
                57.672020903530104,
                -20.425174278082384
              ],
              [
                57.672020903530104,
                -20.425264109610797
              ],
              [
                57.673009050342635,
                -20.425264109610797
              ],
              [
                57.673009050342635,
                -20.42535394113921
              ],
              [
                57.67318871339946,
                -20.42535394113921
              ],
              [
                57.67318871339946,
                -20.42544377266762
              ],
              [
                57.67336837645629,
                -20.42544377266762
              ],
              [
                57.67336837645629,
                -20.425533604196033
              ],
              [
                57.673458207984694,
                -20.425533604196033
              ],
              [
                57.673458207984694,
                -20.425623435724447
              ],
              [
                57.67354803951311,
                -20.425623435724447
              ],
              [
                57.67354803951311,
                -20.425713267252856
              ],
              [
                57.67363787104152,
                -20.425713267252856
              ],
              [
                57.67363787104152,
                -20.425982761838092
              ],
              [
                57.67507517549611,
                -20.425982761838092
              ],
              [
                57.67507517549611,
                -20.42580309878127
              ],
              [
                57.67489551243929,
                -20.42580309878127
              ],
              [
                57.67489551243929,
                -20.425713267252856
              ],
              [
                57.67462601785405,
                -20.425713267252856
              ],
              [
                57.67462601785405,
                -20.425623435724447
              ],
              [
                57.674446354797226,
                -20.425623435724447
              ],
              [
                57.674446354797226,
                -20.425533604196033
              ],
              [
                57.67426669174041,
                -20.425533604196033
              ],
              [
                57.67426669174041,
                -20.42544377266762
              ],
              [
                57.67408702868358,
                -20.42544377266762
              ],
              [
                57.67408702868358,
                -20.42535394113921
              ],
              [
                57.67381753409835,
                -20.42535394113921
              ],
              [
                57.67381753409835,
                -20.425264109610797
              ],
              [
                57.67363787104152,
                -20.425264109610797
              ],
              [
                57.67363787104152,
                -20.425174278082384
              ],
              [
                57.67354803951311,
                -20.425174278082384
              ],
              [
                57.67354803951311,
                -20.425084446553974
              ],
              [
                57.673458207984694,
                -20.425084446553974
              ],
              [
                57.673458207984694,
                -20.42499461502556
              ],
              [
                57.673278544927875,
                -20.42499461502556
              ],
              [
                57.673278544927875,
                -20.424904783497148
              ],
              [
                57.673009050342635,
                -20.424904783497148
              ],
              [
                57.673009050342635,
                -20.424814951968738
              ],
              [
                57.67291921881423,
                -20.424814951968738
              ],
              [
                57.67291921881423,
                -20.424725120440325
              ],
              [
                57.6727395557574,
                -20.424725120440325
              ],
              [
                57.6727395557574,
                -20.424635288911915
              ],
              [
                57.67264972422899,
                -20.424635288911915
              ],
              [
                57.67264972422899,
                -20.424545457383502
              ],
              [
                57.67247006117216,
                -20.424545457383502
              ],
              [
                57.67247006117216,
                -20.42445562585509
              ],
              [
                57.672290398115344,
                -20.42445562585509
              ],
              [
                57.672290398115344,
                -20.42436579432668
              ],
              [
                57.67211073505852,
                -20.42436579432668
              ],
              [
                57.67211073505852,
                -20.424275962798266
              ],
              [
                57.671841240473285,
                -20.424275962798266
              ],
              [
                57.671841240473285,
                -20.424186131269852
              ],
              [
                57.67166157741646,
                -20.424186131269852
              ],
              [
                57.67166157741646,
                -20.424096299741443
              ],
              [
                57.67148191435963,
                -20.424096299741443
              ],
              [
                57.67148191435963,
                -20.42400646821303
              ],
              [
                57.67130225130281,
                -20.42400646821303
              ],
              [
                57.67130225130281,
                -20.423916636684616
              ],
              [
                57.67103275671757,
                -20.423916636684616
              ],
              [
                57.67103275671757,
                -20.423826805156207
              ],
              [
                57.67085309366075,
                -20.423826805156207
              ],
              [
                57.67085309366075,
                -20.423736973627793
              ],
              [
                57.67058359907551,
                -20.423736973627793
              ],
              [
                57.67058359907551,
                -20.423647142099384
              ],
              [
                57.670403936018694,
                -20.423647142099384
              ],
              [
                57.670403936018694,
                -20.42355731057097
              ],
              [
                57.67022427296187,
                -20.42355731057097
              ],
              [
                57.67022427296187,
                -20.423467479042557
              ],
              [
                57.670134441433454,
                -20.423467479042557
              ],
              [
                57.670134441433454,
                -20.423377647514148
              ],
              [
                57.67004460990504,
                -20.423377647514148
              ],
              [
                57.67004460990504,
                -20.42319798445732
              ],
              [
                57.66977511531981,
                -20.42319798445732
              ],
              [
                57.66977511531981,
                -20.42310815292891
              ],
              [
                57.66932595767775,
                -20.42310815292891
              ],
              [
                57.66932595767775,
                -20.423018321400498
              ],
              [
                57.669236126149336,
                -20.423018321400498
              ],
              [
                57.669236126149336,
                -20.422928489872085
              ],
              [
                57.66887680003569,
                -20.422928489872085
              ],
              [
                57.66887680003569,
                -20.422838658343675
              ],
              [
                57.66878696850728,
                -20.422838658343675
              ]
            ]
          ]
        },
        "properties": {
          "area_km2": 0.058
        }
      }
    ]
  },
  "ais_tracks": {
    "type": "FeatureCollection",
    "features": []
  },
  "zones": {
    "type": "FeatureCollection",
    "features": []
  },
  "fusion_links": {
    "type": "FeatureCollection",
    "features": [
      {
        "type": "Feature",
        "geometry": {
          "type": "LineString",
          "coordinates": [
            [
              57.67167906674057,
              -20.424484244749095
            ],
            [
              57.676998216635845,
              -20.43222684808052
            ]
          ]
        },
        "properties": {
          "reason": "dark vessel 1.12 km from slick"
        }
      },
      {
        "type": "Feature",
        "geometry": {
          "type": "LineString",
          "coordinates": [
            [
              57.67167906674057,
              -20.424484244749095
            ],
            [
              57.67076326213234,
              -20.439996480270356
            ]
          ]
        },
        "properties": {
          "reason": "dark vessel 1.85 km from slick"
        }
      }
    ]
  }
}