{
  "ships": {
    "type": "FeatureCollection",
    "features": [
      {
        "type": "Feature",
        "geometry": {
          "type": "Polygon",
          "coordinates": [
            [
              [
                -3.4788749175264395,
                45.46214359329616
              ],
              [
                -3.4742645023217906,
                45.46214359329616
              ],
              [
                -3.4742645023217906,
                45.46105847581009
              ],
              [
                -3.4788749175264395,
                45.46105847581009
              ],
              [
                -3.4788749175264395,
                45.46214359329616
              ]
            ]
          ]
        },
        "properties": {
          "matched": true,
          "mmsi": "SYNTH000000",
          "type": "cargo",
          "confidence": 0.7150444388389587
        }
      }
    ]
  },
  "dark_vessels": {
    "type": "FeatureCollection",
    "features": [
      {
        "type": "Feature",
        "geometry": {
          "type": "Polygon",
          "coordinates": [
            [
              [
                -3.4794301479744223,
                45.461999202890595
              ],
              [
                -3.4730175172918067,
                45.461999202890595
              ],
              [
                -3.4730175172918067,
                45.46044164489739
              ],
              [
                -3.4794301479744223,
                45.46044164489739
              ],
              [
                -3.4794301479744223,
                45.461999202890595
              ]
            ]
          ]
        },
        "properties": {
          "matched": false,
          "confidence": 0.6258656978607178
        }
      }
    ]
  },
  "oil": {
    "type": "FeatureCollection",
    "features": []
  },
  "ais_tracks": {
    "type": "FeatureCollection",
    "features": []
  },
  "zones": {
    "type": "FeatureCollection",
    "features": []
  }
}