{
  "ships": {
    "type": "FeatureCollection",
    "features": [
      {
        "type": "Feature",
        "geometry": {
          "type": "Polygon",
          "coordinates": [
            [
              [
                72.7118900459592,
                18.9228431693256
              ],
              [
                72.71642465955168,
                18.9228431693256
              ],
              [
                72.71642465955168,
                18.921779661232566
              ],
              [
                72.7118900459592,
                18.921779661232566
              ],
              [
                72.7118900459592,
                18.9228431693256
              ]
            ]
          ]
        },
        "properties": {
          "matched": true,
          "mmsi": "SYNTH000000",
          "type": "cargo",
          "confidence": 0.3081575036048889
        }
      },
      {
        "type": "Feature",
        "geometry": {
          "type": "Polygon",
          "coordinates": [
            [
              [
                72.71269178367326,
                18.92210493557405
              ],
              [
                72.71565890050515,
                18.92210493557405
              ],
              [
                72.71565890050515,
                18.92107314751806
              ],
              [
                72.71269178367326,
                18.92107314751806
              ],
              [
                72.71269178367326,
                18.92210493557405
              ]
            ]
          ]
        },
        "properties": {
          "matched": true,
          "mmsi": "SYNTH000001",
          "type": "cargo",
          "confidence": 0.2641329765319824
        }
      },
      {
        "type": "Feature",
        "geometry": {
          "type": "Polygon",
          "coordinates": [
            [
              [
                72.68425522924605,
                18.933746324952015
              ],
              [
                72.68615461256599,
                18.933746324952015
              ],
              [
                72.68615461256599,
                18.932578520424524
              ],
              [
                72.68425522924605,
                18.932578520424524
              ],
              [
                72.68425522924605,
                18.933746324952015
              ]
            ]
          ]
        },
        "properties": {
          "matched": true,
          "mmsi": "SYNTH000002",
          "type": "cargo",
          "confidence": 1.0
        }
      },
      {
        "type": "Feature",
        "geometry": {
          "type": "Polygon",
          "coordinates": [
            [
              [
                72.69737063443719,
                18.933386998838365
              ],
              [
                72.69927001367114,
                18.933386998838365
              ],
              [
                72.69927001367114,
                18.932219194310875
              ],
              [
                72.69737063443719,
                18.932219194310875
              ],
              [
                72.69737063443719,
                18.933386998838365
              ]
            ]
          ]
        },
        "properties": {
          "matched": true,
          "mmsi": "SYNTH000003",
          "type": "cargo",
          "confidence": 1.0
        }
      },
      {
        "type": "Feature",
        "geometry": {
          "type": "Polygon",
          "coordinates": [
            [
              [
                72.72539831307017,
                18.890672107694854
              ],
              [
                72.72729720876723,
                18.890672107694854
              ],
              [
                72.72729720876723,
                18.88977379651986
              ],
              [
                72.72539831307017,
                18.88977379651986
              ],
              [
                72.72539831307017,
                18.890672107694854
              ]
            ]
          ]
        },
        "properties": {
          "matched": true,
          "mmsi": "SYNTH000004",
          "type": "cargo",
          "confidence": 1.0
        }
      },
      {
        "type": "Feature",
        "geometry": {
          "type": "Polygon",
          "coordinates": [
            [
              [
                72.72683563178617,
                18.88811190934057
              ],
              [
                72.72873449896039,
                18.88811190934057
              ],
              [
                72.72873449896039,
                18.887303429283076
              ],
              [
                72.72683563178617,
                18.887303429283076
              ],
              [
                72.72683563178617,
                18.88811190934057
              ]
            ]
          ]
        },
        "properties": {
          "matched": true,
          "mmsi": "SYNTH000005",
          "type": "cargo",
          "confidence": 1.0
        }
      },
      {
        "type": "Feature",
        "geometry": {
          "type": "Polygon",
          "coordinates": [
            [
              [
                72.72899159305162,
                18.88730342558486
              ],
              [
                72.73089045105873,
                18.88730342558486
              ],
              [
                72.73089045105873,
                18.886494945527367
              ],
              [
                72.72899159305162,
                18.886494945527367
              ],
              [
                72.72899159305162,
                18.88730342558486
              ]
            ]
          ]
        },
        "properties": {
          "matched": true,
          "mmsi": "SYNTH000006",
          "type": "cargo",
          "confidence": 1.0
        }
      },
      {
        "type": "Feature",
        "geometry": {
          "type": "Polygon",
          "coordinates": [
            [
              [
                72.731776380108,
                18.885641542103784
              ],
              [
                72.73367521876388,
                18.885641542103784
              ],
              [
                72.73367521876388,
                18.88474323092879
              ],
              [
                72.731776380108,
                18.88474323092879
              ],
              [
                72.731776380108,
                18.885641542103784
              ]
            ]
          ]
        },
        "properties": {
          "matched": true,
          "mmsi": "SYNTH000007",
          "type": "cargo",
          "confidence": 1.0
        }
      },
      {
        "type": "Feature",
        "geometry": {
          "type": "Polygon",
          "coordinates": [
            [
              [
                72.74013083743027,
                18.86363281723194
              ],
              [
                72.74202942572624,
                18.86363281723194
              ],
              [
                72.74202942572624,
                18.86255484382195
              ],
              [
                72.74013083743027,
                18.86255484382195
              ],
              [
                72.74013083743027,
                18.86363281723194
              ]
            ]
          ]
        },
        "properties": {
          "matched": true,
          "mmsi": "SYNTH000008",
          "type": "cargo",
          "confidence": 1.0
        }
      }
    ]
  },
  "dark_vessels": {
    "type": "FeatureCollection",
    "features": []
  },
  "oil": {
    "type": "FeatureCollection",
    "features": []
  },
  "ais_tracks": {
    "type": "FeatureCollection",
    "features": []
  },
  "zones": {
    "type": "FeatureCollection",
    "features": []
  }
}