{
  "ships": {
    "type": "FeatureCollection",
    "features": [
      {
        "type": "Feature",
        "geometry": {"type": "Point", "coordinates": [-90.40, 28.22]},
        "properties": {"matched": true, "mmsi": "367123450", "type": "cargo", "confidence": 0.93}
      }
    ]
  },
  "dark_vessels": {
    "type": "FeatureCollection",
    "features": [
      {
        "type": "Feature",
        "geometry": {"type": "Point", "coordinates": [-90.28, 28.31]},
        "properties": {"matched": false, "confidence": 0.88}
      }
    ]
  },
  "oil": {
    "type": "FeatureCollection",
    "features": [
      {
        "type": "Feature",
        "geometry": {"type": "Polygon", "coordinates": [[[-90.34, 28.27], [-90.30, 28.27], [-90.30, 28.30], [-90.34, 28.30], [-90.34, 28.27]]]},
        "properties": {"area_km2": 12.4}
      }
    ]
  },
  "ais_tracks": {
    "type": "FeatureCollection",
    "features": [
      {
        "type": "Feature",
        "geometry": {"type": "LineString", "coordinates": [[-90.45, 28.18], [-90.40, 28.22], [-90.35, 28.25]]},
        "properties": {"mmsi": "367123450"}
      }
    ]
  },
  "zones": {
    "type": "FeatureCollection",
    "features": [
      {
        "type": "Feature",
        "geometry": {"type": "Polygon", "coordinates": [[[-90.5, 28.05], [-90.1, 28.05], [-90.1, 28.45], [-90.5, 28.45], [-90.5, 28.05]]]},
        "properties": {"kind": "EEZ", "name": "fixture zone"}
      }
    ]
  },
  "fusion_links": {
    "type": "FeatureCollection",
    "features": [
      {
        "type": "Feature",
        "geometry": {"type": "LineString", "coordinates": [[-90.32, 28.285], [-90.28, 28.31]]},
        "properties": {"reason": "dark vessel within range of slick"}
      }
    ]
  }
}
