{
  "ships": {
    "type": "FeatureCollection",
    "features": [
      {
        "type": "Feature",
        "geometry": {
          "type": "Polygon",
          "coordinates": [
            [
              [
                103.39761555470092,
                1.2999231323192775
              ],
              [
                103.40001973116226,
                1.2999231323192775
              ],
              [
                103.40001973116226,
                1.2991433322263561
              ],
              [
                103.39761555470092,
                1.2991433322263561
              ],
              [
                103.39761555470092,
                1.2999231323192775
              ]
            ]
          ]
        },
        "properties": {
          "matched": true,
          "mmsi": "SYNTH000000",
          "type": "cargo",
          "confidence": 0.8555448055267334
        }
      },
      {
        "type": "Feature",
        "geometry": {
          "type": "Polygon",
          "coordinates": [
            [
              [
                103.40588876646383,
                1.2930468951377962
              ],
              [
                103.40916596249362,
                1.2930468951377962
              ],
              [
                103.40916596249362,
                1.2917660461929708
              ],
              [
                103.40588876646383,
                1.2917660461929708
              ],
              [
                103.40588876646383,
                1.2930468951377962
              ]
            ]
          ]
        },
        "properties": {
          "matched": true,
          "mmsi": "SYNTH000003",
          "type": "cargo",
          "confidence": 0.7920669913291931
        }
      },
      {
        "type": "Feature",
        "geometry": {
          "type": "Polygon",
          "coordinates": [
            [
              [
                103.40314781104021,
                1.2815442367836545
              ],
              [
                103.40521986694725,
                1.2815442367836545
              ],
              [
                103.40521986694725,
                1.2808255878436616
              ],
              [
                103.40314781104021,
                1.2808255878436616
              ],
              [
                103.40314781104021,
                1.2815442367836545
              ]
            ]
          ]
        },
        "properties": {
          "matched": true,
          "mmsi": "SYNTH000004",
          "type": "cargo",
          "confidence": 0.6179534196853638
        }
      },
      {
        "type": "Feature",
        "geometry": {
          "type": "Polygon",
          "coordinates": [
            [
              [
                103.36024617718675,
                1.3500331224790023
              ],
              [
                103.3620432980226,
                1.3500331224790023
              ],
              [
                103.3620432980226,
                1.349044980186512
              ],
              [
                103.36024617718675,
                1.349044980186512
              ],
              [
                103.36024617718675,
                1.3500331224790023
              ]
            ]
          ]
        },
        "properties": {
          "matched": true,
          "mmsi": "SYNTH000006",
          "type": "cargo",
          "confidence": 1.0
        }
      },
      {
        "type": "Feature",
        "geometry": {
          "type": "Polygon",
          "coordinates": [
            [
              [
                103.4004008894242,
                1.2975265939167597
              ],
              [
                103.40219797218545,
                1.2975265939167597
              ],
              [
                103.40219797218545,
                1.2964486205067707
              ],
              [
                103.4004008894242,
                1.2964486205067707
              ],
              [
                103.4004008894242,
                1.2975265939167597
              ]
            ]
          ]
        },
        "properties": {
          "matched": true,
          "mmsi": "SYNTH000008",
          "type": "cargo",
          "confidence": 1.0
        }
      },
      {
        "type": "Feature",
        "geometry": {
          "type": "Polygon",
          "coordinates": [
            [
              [
                103.40561111953696,
                1.2933943436098099
              ],
              [
                103.40740819936846,
                1.2933943436098099
              ],
              [
                103.40740819936846,
                1.2923163701998208
              ],
              [
                103.40561111953696,
                1.2923163701998208
              ],
              [
                103.40561111953696,
                1.2933943436098099
              ]
            ]
          ]
        },
        "properties": {
          "matched": true,
          "mmsi": "SYNTH000009",
          "type": "cargo",
          "confidence": 1.0
        }
      },
      {
        "type": "Feature",
        "geometry": {
          "type": "Polygon",
          "coordinates": [
            [
              [
                103.41746888382377,
                1.2862078213368537
              ],
              [
                103.4192659585824,
                1.2862078213368537
              ],
              [
                103.4192659585824,
                1.2851298479268647
              ],
              [
                103.41746888382377,
                1.2851298479268647
              ],
              [
                103.41746888382377,
                1.2862078213368537
              ]
            ]
          ]
        },
        "properties": {
          "matched": true,
          "mmsi": "SYNTH000010",
          "type": "cargo",
          "confidence": 1.0
        }
      }
    ]
  },
  "dark_vessels": {
    "type": "FeatureCollection",
    "features": [
      {
        "type": "Feature",
        "geometry": {
          "type": "Polygon",
          "coordinates": [
            [
              [
                103.38413059002602,
                1.299576321823155
              ],
              [
                103.38766956715804,
                1.299576321823155
              ],
              [
                103.38766956715804,
                1.2979343148212517
              ],
              [
                103.38413059002602,
                1.2979343148212517
              ],
              [
                103.38413059002602,
                1.299576321823155
              ]
            ]
          ]
        },
        "properties": {
          "matched": false,
          "confidence": 0.8464329838752747
        }
      },
      {
        "type": "Feature",
        "geometry": {
          "type": "Polygon",
          "coordinates": [
            [
              [
                103.41741999697015,
                1.285682058262359
              ],
              [
                103.42146824709519,
                1.285682058262359
              ],
              [
                103.42146824709519,
                1.2843111536599352
              ],
              [
                103.41741999697015,
                1.2843111536599352
              ],
              [
                103.41741999697015,
                1.285682058262359
              ]
            ]
          ]
        },
        "properties": {
          "matched": false,
          "confidence": 0.8158095479011536
        }
      },
      {
        "type": "Feature",
        "geometry": {
          "type": "Polygon",
          "coordinates": [
            [
              [
                103.40299984950346,
                1.2814005706513747
              ],
              [
                103.40493413805032,
                1.2814005706513747
              ],
              [
                103.40493413805032,
                1.2805923278130869
              ],
              [
                103.40299984950346,
                1.2805923278130869
              ],
              [
                103.40299984950346,
                1.2814005706513747
              ]
            ]
          ]
        },
        "properties": {
          "matched": false,
          "confidence": 0.33288949728012085
        }
      },
      {
        "type": "Feature",
        "geometry": {
          "type": "Polygon",
          "coordinates": [
            [
              [
                103.38414138198355,
                1.2998172976858082
              ],
              [
                103.38593846634096,
                1.2998172976858082
              ],
              [
                103.38593846634096,
                1.29864949315832
              ],
              [
                103.38414138198355,
                1.29864949315832
              ],
              [
                103.38414138198355,
                1.2998172976858082
              ]
            ]
          ]
        },
        "properties": {
          "matched": false,
          "confidence": 1.0
        }
      }
    ]
  },
  "oil": {
    "type": "FeatureCollection",
    "features": [
      {
        "type": "Feature",
        "geometry": {
          "type": "Polygon",
          "coordinates": [
            [
              [
                103.43929816732307,
                1.314414923723684
              ],
              [
                103.43929816732307,
                1.3143250921952718
              ],
              [
                103.43920833579466,
                1.3143250921952718
              ],
              [
                103.43920833579466,
                1.314145429138448
              ],
              [
                103.43911850426625,
                1.314145429138448
              ],
              [
                103.43911850426625,
                1.3139657660816242
              ],
              [
                103.43893884120943,
                1.3139657660816242
              ],
              [
                103.43893884120943,
                1.313875934553212
              ],
              [
                103.43875917815261,
                1.313875934553212
              ],
              [
                103.43875917815261,
                1.3137861030248001
              ],
              [
                103.4386693466242,
                1.3137861030248001
              ],
              [
                103.4386693466242,
                1.3135166084395644
              ],
              [
                103.43857951509578,
                1.3135166084395644
              ],
              [
                103.43857951509578,
                1.3133369453827404
              ],
              [
                103.4386693466242,
                1.3133369453827404
              ],
              [
                103.4386693466242,
                1.3132471138543285
              ],
              [
                103.43875917815261,
                1.3132471138543285
              ],
              [
                103.43875917815261,
                1.3131572823259166
              ],
              [
                103.43884900968102,
                1.3131572823259166
              ],
              [
                103.43884900968102,
                1.3126182931554449
              ],
              [
                103.43902867273785,
                1.3126182931554449
              ],
              [
                103.43902867273785,
                1.3127081246838568
              ],
              [
                103.43911850426625,
                1.3127081246838568
              ],
              [
                103.43911850426625,
                1.3127979562122687
              ],
              [
                103.43902867273785,
                1.3127979562122687
              ],
              [
                103.43902867273785,
                1.3130674507975046
              ],
              [
                103.43911850426625,
                1.3130674507975046
              ],
              [
                103.43911850426625,
                1.3131572823259166
              ],
              [
                103.43929816732307,
                1.3131572823259166
              ],
              [
                103.43929816732307,
                1.3132471138543285
              ],
              [
                103.43938799885149,
                1.3132471138543285
              ],
              [
                103.43938799885149,
                1.3133369453827404
              ],
              [
                103.43956766190831,
                1.3133369453827404
              ],
              [
                103.43956766190831,
                1.3135166084395644
              ],
              [
                103.43965749343673,
                1.3135166084395644
              ],
              [
                103.43965749343673,
                1.3136962714963882
              ],
              [
                103.43974732496514,
                1.3136962714963882
              ],
              [
                103.43974732496514,
                1.3143250921952718
              ],
              [
                103.43965749343673,
                1.3143250921952718
              ],
              [
                103.43965749343673,
                1.314414923723684
              ],
              [
                103.43929816732307,
                1.314414923723684
              ]
            ]
          ]
        },
        "properties": {
          "area_km2": 0.013
        }
      },
      {
        "type": "Feature",
        "geometry": {
          "type": "Polygon",
          "coordinates": [
            [
              [
                103.43992698802197,
                1.312528461627033
              ],
              [
                103.43992698802197,
                1.3124386300986208
              ],
              [
                103.43983715649355,
                1.3124386300986208
              ],
              [
                103.43983715649355,
                1.312258967041797
              ],
              [
                103.43992698802197,
                1.312258967041797
              ],
              [
                103.43992698802197,
                1.311989472456561
              ],
              [
                103.44010665107878,
                1.311989472456561
              ],
              [
                103.44010665107878,
                1.3118996409281491
              ],
              [
                103.4402863141356,
                1.3118996409281491
              ],
              [
                103.4402863141356,
                1.3118098093997372
              ],
              [
                103.44046597719243,
                1.3118098093997372
              ],
              [
                103.44046597719243,
                1.3118996409281491
              ],
              [
                103.44055580872084,
                1.3118996409281491
              ],
              [
                103.44055580872084,
                1.312169135513385
              ],
              [
                103.44037614566402,
                1.312169135513385
              ],
              [
                103.44037614566402,
                1.312258967041797
              ],
              [
                103.44019648260719,
                1.312258967041797
              ],
              [
                103.44019648260719,
                1.312348798570209
              ],
              [
                103.44010665107878,
                1.312348798570209
              ],
              [
                103.44010665107878,
                1.3124386300986208
              ],
              [
                103.44001681955038,
                1.3124386300986208
              ],
              [
                103.44001681955038,
                1.312528461627033
              ],
              [
                103.43992698802197,
                1.312528461627033
              ]
            ]
          ]
        },
        "properties": {
          "area_km2": 0.003
        }
      },
      {
        "type": "Feature",
        "geometry": {
          "type": "Polygon",
          "coordinates": [
            [
              [
                103.43956766190831,
                1.3112708202292656
              ],
              [
                103.43956766190831,
                1.3111809887008536
              ],
              [
                103.4394778303799,
                1.3111809887008536
              ],
              [
                103.4394778303799,
                1.3110013256440296
              ],
              [
                103.43938799885149,
                1.3110013256440296
              ],
              [
                103.43938799885149,
                1.3109114941156177
              ],
              [
                103.4394778303799,
                1.3109114941156177
              ],
              [
                103.4394778303799,
                1.3107318310587939
              ],
              [
                103.43956766190831,
                1.3107318310587939
              ],
              [
                103.43956766190831,
                1.3105521680019698
              ],
              [
                103.43974732496514,
                1.3105521680019698
              ],
              [
                103.43974732496514,
                1.310641999530382
              ],
              [
                103.43983715649355,
                1.310641999530382
              ],
              [
                103.43983715649355,
                1.3110911571724417
              ],
              [
                103.43974732496514,
                1.3110911571724417
              ],
              [
                103.43974732496514,
                1.3111809887008536
              ],
              [
                103.43965749343673,
                1.3111809887008536
              ],
              [
                103.43965749343673,
                1.3112708202292656
              ],
              [
                103.43956766190831,
                1.3112708202292656
              ]
            ]
          ]
        },
        "properties": {
          "area_km2": 0.003
        }
      },
      {
        "type": "Feature",
        "geometry": {
          "type": "Polygon",
          "coordinates": [
            [
              [
                103.43848968356737,
                1.3110013256440296
              ],
              [
                103.43848968356737,
                1.3109114941156177
              ],
              [
                103.43839985203896,
                1.3109114941156177
              ],
              [
                103.43839985203896,
                1.3108216625872058
              ],
              [
                103.43822018898213,
                1.3108216625872058
              ],
              [
                103.43822018898213,
                1.3107318310587939
              ],
              [
                103.43813035745372,
                1.3107318310587939
              ],
              [
                103.43813035745372,
                1.3105521680019698
              ],
              [
                103.43804052592532,
                1.3105521680019698
              ],
              [
                103.43804052592532,
                1.310462336473558
              ],
              [
                103.43813035745372,
                1.310462336473558
              ],
              [
                103.43813035745372,
                1.31010301035991
              ],
              [
                103.43822018898213,
                1.31010301035991
              ],
              [
                103.43822018898213,
                1.3100131788314981
              ],
              [
                103.43848968356737,
                1.3100131788314981
              ],
              [
                103.43848968356737,
                1.3099233473030862
              ],
              [
                103.43893884120943,
                1.3099233473030862
              ],
              [
                103.43893884120943,
                1.3100131788314981
              ],
              [
                103.43902867273785,
                1.3100131788314981
              ],
              [
                103.43902867273785,
                1.3107318310587939
              ],
              [
                103.43893884120943,
                1.3107318310587939
              ],
              [
                103.43893884120943,
                1.3108216625872058
              ],
              [
                103.43884900968102,
                1.3108216625872058
              ],
              [
                103.43884900968102,
                1.3109114941156177
              ],
              [
                103.4386693466242,
                1.3109114941156177
              ],
              [
                103.4386693466242,
                1.3110013256440296
              ],
              [
                103.43848968356737,
                1.3110013256440296
              ]
            ]
          ]
        },
        "properties": {
          "area_km2": 0.01
        }
      }
    ]
  },
  "ais_tracks": {
    "type": "FeatureCollection",
    "features": []
  },
  "zones": {
    "type": "FeatureCollection",
    "features": []
  }
}